{
    "links": {
        "self": "http://www.neowsapp.com/rest/v1/neo/3778557?api_key=iIulBulltgU6a56xZRHN4H3l9WmuAYTsLGpBGhQ2"
    },
    "id": "3778557",
    "neo_reference_id": "3778557",
    "name": "(2017 OL7)",
    "designation": "2017 OL7",
    "nasa_jpl_url": "http://ssd.jpl.nasa.gov/sbdb.cgi?sstr=3778557",
    "absolute_magnitude_h": 23.4,
    "estimated_diameter": {
        "kilometers": {
            "estimated_diameter_min": 0.0555334912,
            "estimated_diameter_max": 0.1241766613
        },
        "meters": {
            "estimated_diameter_min": 55.5334911581,
            "estimated_diameter_max": 124.1766612574
        },
        "miles": {
            "estimated_diameter_min": 0.0345069009,
            "estimated_diameter_max": 0.0771597762
        },
        "feet": {
            "estimated_diameter_min": 182.1964991311,
            "estimated_diameter_max": 407.4037573197
        }
    },
    "is_potentially_hazardous_asteroid": false,
    "close_approach_data": [
        {
            "close_approach_date": "2017-08-07",
            "close_approach_date_full": "2017-Aug-07 20:50",
            "epoch_date_close_approach": 1502139000000,
            "relative_velocity": {
                "kilometers_per_second": "12.0509016371",
                "kilometers_per_hour": "43383.2458934912",
                "miles_per_hour": "26956.6618719863"
            },
            "miss_distance": {
                "astronomical": "0.0857013891",
                "lunar": "33.3378403599",
                "kilometers": "12820745.265401217",
                "miles": "7966441.6991101146"
            },
            "orbiting_body": "Earth"
        }
    ],
    "orbital_data": {
        "orbit_id": "2",
        "orbit_determination_date": "2017-08-06 06:17:16",
        "first_observation_date": "2017-07-26",
        "last_observation_date": "2017-08-03",
        "data_arc_in_days": 8,
        "observations_used": 13,
        "orbit_uncertainty": "9",
        "minimum_orbit_intersection": ".0464752",
        "jupiter_tisserand_invariant": "3.910",
        "epoch_osculation": "2457961.5",
        "eccentricity": ".4917634904524108",
        "semi_major_axis": "1.800622606292755",
        "inclination": "5.121883011319474",
        "ascending_node_longitude": "174.6953323565337",
        "orbital_period": "882.5360900928679",
        "perihelion_distance": ".9151421484347125",
        "perihelion_argument": "191.9812721509495",
        "aphelion_distance": "2.686103064150797",
        "perihelion_time": "2458010.966721921298",
        "mean_anomaly": "339.8217658273971",
        "mean_motion": ".4079153295160063",
        "equinox": "J2000",
        "orbit_class": {
            "orbit_class_type": "APO",
            "orbit_class_description": "Near-Earth asteroid orbits which cross the Earth’s orbit similar to that of 1862 Apollo",
            "orbit_class_range": "a (semi-major axis) > 1.0 AU; q (perihelion) < 1.017 AU"
        }
    },
    "is_sentry_object": false
}